OBJECT_NAME,OBJECT_ID,EPOCH,MEAN_MOTION,ECCENTRICITY,INCLINATION,RA_OF_ASC_NODE,ARG_OF_PERICENTER,MEAN_ANOMALY,EPHEMERIS_TYPE,CLASSIFICATION_TYPE,NORAD_CAT_ID,ELEMENT_SET_NO,REV_AT_EPOCH,BSTAR,MEAN_MOTION_DOT,MEAN_MOTION_DDOT
STARLINK-37645,2026-123U,2026-06-13T20:00:01.999008,15.90351949,.0000809,53.1562,258.1728,60.4775,220.5941,0,U,69371,999,266,-.77195E-2,-.2088187E-1,0
STARLINK-37688,2026-123V,2026-06-13T20:00:01.999008,15.89279945,.0000805,53.1560,258.1296,59.1730,242.4868,0,U,69372,999,266,-.73278E-2,-.1860673E-1,0
STARLINK-37685,2026-123W,2026-06-13T20:00:01.999008,15.89196790,.0000884,53.1558,258.1218,64.3997,241.0032,0,U,69373,999,266,-.73648E-2,-.1861998E-1,0
STARLINK-37632,2026-123X,2026-06-13T20:00:01.999008,15.89235895,.0000896,53.1557,258.1147,55.8370,253.0398,0,U,69374,999,261,-.74205E-2,-.1877118E-1,0
STARLINK-37454,2026-123Y,2026-06-13T20:00:01.999008,15.89177267,.0000837,53.1557,258.1001,54.7344,261.0029,0,U,69375,999,275,-.73213E-2,-.1851037E-1,0
STARLINK-37485,2026-123Z,2026-06-13T20:00:01.999008,15.89180639,.0000784,53.1556,258.0910,52.9652,267.0500,0,U,69376,999,275,-.73695E-2,-.1861586E-1,0
STARLINK-37439,2026-123AA,2026-06-13T20:00:01.999008,15.90914861,.0000715,53.1551,258.0332,59.2735,288.5674,0,U,69377,999,261,-.66792E-2,-.2128322E-1,.1209E-2
STARLINK-37376,2026-123AB,2026-06-13T20:00:01.999008,15.90042607,.0000809,53.1553,258.0501,57.9852,281.5606,0,U,69378,999,275,-.69055E-2,-.1829102E-1,0
STARLINK-37383,2026-123AC,2026-06-13T20:00:01.999008,15.90820609,.0000826,53.1547,257.9885,54.5165,314.3399,0,U,69379,999,275,-.67342E-2,-.2135444E-1,.12155E-2
STARLINK-37411,2026-123AD,2026-06-13T20:00:01.999008,15.90066799,.0000809,53.1553,258.0349,53.9094,292.6798,0,U,69380,999,275,-.70056E-2,-.1853632E-1,0
STARLINK-37427,2026-123AE,2026-06-13T20:00:01.999008,15.90919332,.0000841,53.1552,258.0023,57.7383,304.6252,0,U,69381,999,266,-.64773E-2,-.2065269E-1,.11427E-2
QIANFAN-165,2026-124A,2026-06-12T21:11:41.393472,14.19919653,.00041155,88.9978,2.5286,184.3071,175.8085,0,U,69382,999,120,-.10643886E+1,-.2084539E-1,0
QIANFAN-166,2026-124B,2026-06-13T19:04:51.753216,14.20107670,.000059,88.9981,2.4246,340.7303,19.3865,0,U,69383,999,133,-.99595E+0,-.1966168E-1,0
QIANFAN-167,2026-124C,2026-06-12T21:08:46.152672,14.20776910,.00021056,88.9978,2.5284,162.2755,197.8509,0,U,69384,999,120,-.10244004E+1,-.204198E-1,0
QIANFAN-168,2026-124D,2026-06-13T00:30:54.133632,14.24420262,.0003353,88.9982,2.5154,123.5245,236.6268,0,U,69385,999,122,.38459E-4,.104E-5,0
QIANFAN-169,2026-124E,2026-06-13T19:01:12.667872,14.19567789,.0008169,88.9978,2.4236,202.3146,157.7689,0,U,69386,999,133,-.87798E+0,-.1713149E-1,0
QIANFAN-170,2026-124F,2026-06-13T19:02:03.247296,14.21745551,.0003867,88.9974,2.4249,117.7396,242.4187,0,U,69387,999,133,-.10304E+1,-.2088106E-1,0
QIANFAN-171,2026-124G,2026-06-13T18:59:02.743008,14.20530017,.0022197,88.9981,2.4235,187.5923,172.4935,0,U,69388,999,133,-.86631E+0,-.1724011E-1,0
QIANFAN-172,2026-124H,2026-06-13T20:34:16.387104,14.29008880,.0003179,88.9977,2.4156,174.9675,185.1552,0,U,69389,999,134,-.61077E+0,-.1443543E-1,0
QIANFAN-173,2026-124J,2026-06-13T19:01:00.716160,14.25636559,.0002523,88.9984,2.4233,170.3122,189.8120,0,U,69390,999,133,.37327E-4,.103E-5,0
QIANFAN-174,2026-124K,2026-06-13T12:16:14.205792,14.25793285,.00020526,88.9981,2.4554,166.0475,194.0775,0,U,69391,999,129,-.1026265E-4,-.1E-6,0
QIANFAN-175,2026-124L,2026-06-13T19:00:25.600608,14.25625551,.0002704,88.9984,2.4232,178.2234,181.8969,0,U,69392,999,133,.37113E-4,.102E-5,0
QIANFAN-176,2026-124M,2026-06-13T20:41:15.191232,14.25634274,.000182,88.9984,2.4152,177.8095,182.3106,0,U,69393,999,134,.37243E-4,.103E-5,0
QIANFAN-177,2026-124N,2026-06-13T20:40:34.540896,14.25688991,.0002835,88.9981,2.4149,162.7084,197.4207,0,U,69394,999,134,.11169E-6,.15E-6,0
QIANFAN-178,2026-124P,2026-06-13T00:27:53.635392,14.26159618,.00022565,88.9642,2.5838,195.3700,164.7425,0,U,69395,999,122,.37986857E-4,.106E-5,0
QIANFAN-179,2026-124Q,2026-06-13T20:38:29.184864,14.22997940,.0004353,88.9978,2.4153,107.3109,252.8559,0,U,69396,999,134,-.94572E+0,-.1971323E-1,0
QIANFAN-180,2026-124R,2026-06-13T20:39:52.445088,14.26489128,.0002315,88.9984,2.4151,170.7781,189.3456,0,U,69397,999,134,.37314E-4,.104E-5,0
QIANFAN-181,2026-124S,2026-06-13T20:51:18.817056,14.21114977,.0002085,88.9984,2.4163,140.3432,219.7911,0,U,69398,999,134,.37938E-4,.97E-6,0
QIANFAN-182,2026-124T,2026-06-13T05:33:40.695264,14.25276588,.0002478,88.9988,2.4869,179.1552,180.9646,0,U,69399,999,125,.37547645E-4,.103E-5,0
CZ-6A R/B,2026-124U,2026-06-13T20:54:09.705024,14.57302430,.0100191,89.0257,2.3536,73.1023,288.1144,0,U,69400,999,137,.60874E-4,.315E-5,0
