{"updated_at":"2026-06-14T00:15:38.702233Z","count":200,"data":[{"NORAD_CAT_ID":"69371","OBJECT_NAME":"STARLINK-37645","OBJECT_ID":"2026-123U","EPOCH":"2026-06-13T20:00:01.999008","TLE_LINE1":"1 69371U 26123U   26164.83335647 -.02088187  00000-0 -77195-2 0  9995","TLE_LINE2":"2 69371  53.1562 258.1728 0000809  60.4775 220.5941 15.90351949  2662"},{"NORAD_CAT_ID":"69372","OBJECT_NAME":"STARLINK-37688","OBJECT_ID":"2026-123V","EPOCH":"2026-06-13T20:00:01.999008","TLE_LINE1":"1 69372U 26123V   26164.83335647 -.01860673  00000-0 -73278-2 0  9991","TLE_LINE2":"2 69372  53.1560 258.1296 0000805  59.1730 242.4868 15.89279945  2667"},{"NORAD_CAT_ID":"69373","OBJECT_NAME":"STARLINK-37685","OBJECT_ID":"2026-123W","EPOCH":"2026-06-13T20:00:01.999008","TLE_LINE1":"1 69373U 26123W   26164.83335647 -.01861998  00000-0 -73648-2 0  9994","TLE_LINE2":"2 69373  53.1558 258.1218 0000884  64.3997 241.0032 15.89196790  2663"},{"NORAD_CAT_ID":"69374","OBJECT_NAME":"STARLINK-37632","OBJECT_ID":"2026-123X","EPOCH":"2026-06-13T20:00:01.999008","TLE_LINE1":"1 69374U 26123X   26164.83335647 -.01877118  00000-0 -74205-2 0  9996","TLE_LINE2":"2 69374  53.1557 258.1147 0000896  55.8370 253.0398 15.89235895  2610"},{"NORAD_CAT_ID":"69375","OBJECT_NAME":"STARLINK-37454","OBJECT_ID":"2026-123Y","EPOCH":"2026-06-13T20:00:01.999008","TLE_LINE1":"1 69375U 26123Y   26164.83335647 -.01851037  00000-0 -73213-2 0  9997","TLE_LINE2":"2 69375  53.1557 258.1001 0000837  54.7344 261.0029 15.89177267  2757"},{"NORAD_CAT_ID":"69376","OBJECT_NAME":"STARLINK-37485","OBJECT_ID":"2026-123Z","EPOCH":"2026-06-13T20:00:01.999008","TLE_LINE1":"1 69376U 26123Z   26164.83335647 -.01861586  00000-0 -73695-2 0  9992","TLE_LINE2":"2 69376  53.1556 258.0910 0000784  52.9652 267.0500 15.89180639  2755"},{"NORAD_CAT_ID":"69377","OBJECT_NAME":"STARLINK-37439","OBJECT_ID":"2026-123AA","EPOCH":"2026-06-13T20:00:01.999008","TLE_LINE1":"1 69377U 26123AA  26164.83335647 -.02128322  12090-2 -66792-2 0  9992","TLE_LINE2":"2 69377  53.1551 258.0332 0000715  59.2735 288.5674 15.90914861  2614"},{"NORAD_CAT_ID":"69378","OBJECT_NAME":"STARLINK-37376","OBJECT_ID":"2026-123AB","EPOCH":"2026-06-13T20:00:01.999008","TLE_LINE1":"1 69378U 26123AB  26164.83335647 -.01829102  00000-0 -69055-2 0  9997","TLE_LINE2":"2 69378  53.1553 258.0501 0000809  57.9852 281.5606 15.90042607  2757"},{"NORAD_CAT_ID":"69379","OBJECT_NAME":"STARLINK-37383","OBJECT_ID":"2026-123AC","EPOCH":"2026-06-13T20:00:01.999008","TLE_LINE1":"1 69379U 26123AC  26164.83335647 -.02135444  12155-2 -67342-2 0  9991","TLE_LINE2":"2 69379  53.1547 257.9885 0000826  54.5165 314.3399 15.90820609  2753"},{"NORAD_CAT_ID":"69380","OBJECT_NAME":"STARLINK-37411","OBJECT_ID":"2026-123AD","EPOCH":"2026-06-13T20:00:01.999008","TLE_LINE1":"1 69380U 26123AD  26164.83335647 -.01853632  00000-0 -70056-2 0  9998","TLE_LINE2":"2 69380  53.1553 258.0349 0000809  53.9094 292.6798 15.90066799  2757"},{"NORAD_CAT_ID":"69381","OBJECT_NAME":"STARLINK-37427","OBJECT_ID":"2026-123AE","EPOCH":"2026-06-13T20:00:01.999008","TLE_LINE1":"1 69381U 26123AE  26164.83335647 -.02065269  11427-2 -64773-2 0  9997","TLE_LINE2":"2 69381  53.1552 258.0023 0000841  57.7383 304.6252 15.90919332  2664"},{"NORAD_CAT_ID":"69382","OBJECT_NAME":"QIANFAN-165","OBJECT_ID":"2026-124A","EPOCH":"2026-06-12T21:11:41.393472","TLE_LINE1":"1 69382U 26124A   26163.88311798 -.02084539  00000-0 -10644+1 0  9994","TLE_LINE2":"2 69382  88.9978   2.5286 0004116 184.3071 175.8085 14.19919653  1203"},{"NORAD_CAT_ID":"69383","OBJECT_NAME":"QIANFAN-166","OBJECT_ID":"2026-124B","EPOCH":"2026-06-13T19:04:51.753216","TLE_LINE1":"1 69383U 26124B   26164.79504344 -.01966168  00000-0 -99595+0 0  9994","TLE_LINE2":"2 69383  88.9981   2.4246 0000590 340.7303  19.3865 14.20107670  1333"},{"NORAD_CAT_ID":"69384","OBJECT_NAME":"QIANFAN-167","OBJECT_ID":"2026-124C","EPOCH":"2026-06-12T21:08:46.152672","TLE_LINE1":"1 69384U 26124C   26163.88108973 -.02041980  00000-0 -10244+1 0  9994","TLE_LINE2":"2 69384  88.9978   2.5284 0002106 162.2755 197.8509 14.20776910  1208"},{"NORAD_CAT_ID":"69385","OBJECT_NAME":"QIANFAN-168","OBJECT_ID":"2026-124D","EPOCH":"2026-06-13T00:30:54.133632","TLE_LINE1":"1 69385U 26124D   26164.02145988  .00000104  00000-0  38459-4 0  9990","TLE_LINE2":"2 69385  88.9982   2.5154 0003353 123.5245 236.6268 14.24420262  1225"},{"NORAD_CAT_ID":"69386","OBJECT_NAME":"QIANFAN-169","OBJECT_ID":"2026-124E","EPOCH":"2026-06-13T19:01:12.667872","TLE_LINE1":"1 69386U 26124E   26164.79250773 -.01713149  00000-0 -87798+0 0  9992","TLE_LINE2":"2 69386  88.9978   2.4236 0008169 202.3146 157.7689 14.19567789  1339"},{"NORAD_CAT_ID":"69387","OBJECT_NAME":"QIANFAN-170","OBJECT_ID":"2026-124F","EPOCH":"2026-06-13T19:02:03.247296","TLE_LINE1":"1 69387U 26124F   26164.79309314 -.02088106  00000-0 -10304+1 0  9998","TLE_LINE2":"2 69387  88.9974   2.4249 0003867 117.7396 242.4187 14.21745551  1339"},{"NORAD_CAT_ID":"69388","OBJECT_NAME":"QIANFAN-171","OBJECT_ID":"2026-124G","EPOCH":"2026-06-13T18:59:02.743008","TLE_LINE1":"1 69388U 26124G   26164.79100397 -.01724011  00000-0 -86631+0 0  9995","TLE_LINE2":"2 69388  88.9981   2.4235 0022197 187.5923 172.4935 14.20530017  1332"},{"NORAD_CAT_ID":"69389","OBJECT_NAME":"QIANFAN-172","OBJECT_ID":"2026-124H","EPOCH":"2026-06-13T20:34:16.387104","TLE_LINE1":"1 69389U 26124H   26164.85713411 -.01443543  00000-0 -61077+0 0  9995","TLE_LINE2":"2 69389  88.9977   2.4156 0003179 174.9675 185.1552 14.29008880  1347"},{"NORAD_CAT_ID":"69390","OBJECT_NAME":"QIANFAN-173","OBJECT_ID":"2026-124J","EPOCH":"2026-06-13T19:01:00.716160","TLE_LINE1":"1 69390U 26124J   26164.79236940  .00000103  00000-0  37327-4 0  9991","TLE_LINE2":"2 69390  88.9984   2.4233 0002523 170.3122 189.8120 14.25636559  1339"},{"NORAD_CAT_ID":"69391","OBJECT_NAME":"QIANFAN-174","OBJECT_ID":"2026-124K","EPOCH":"2026-06-13T12:16:14.205792","TLE_LINE1":"1 69391U 26124K   26164.51127553 -.00000010  00000-0 -10263-4 0  9990","TLE_LINE2":"2 69391  88.9981   2.4554 0002053 166.0475 194.0775 14.25793285  1293"},{"NORAD_CAT_ID":"69392","OBJECT_NAME":"QIANFAN-175","OBJECT_ID":"2026-124L","EPOCH":"2026-06-13T19:00:25.600608","TLE_LINE1":"1 69392U 26124L   26164.79196297  .00000102  00000-0  37113-4 0  9995","TLE_LINE2":"2 69392  88.9984   2.4232 0002704 178.2234 181.8969 14.25625551  1335"},{"NORAD_CAT_ID":"69393","OBJECT_NAME":"QIANFAN-176","OBJECT_ID":"2026-124M","EPOCH":"2026-06-13T20:41:15.191232","TLE_LINE1":"1 69393U 26124M   26164.86198138  .00000103  00000-0  37243-4 0  9995","TLE_LINE2":"2 69393  88.9984   2.4152 0001820 177.8095 182.3106 14.25634274  1347"},{"NORAD_CAT_ID":"69394","OBJECT_NAME":"QIANFAN-177","OBJECT_ID":"2026-124N","EPOCH":"2026-06-13T20:40:34.540896","TLE_LINE1":"1 69394U 26124N   26164.86151089  .00000015  00000-0  11169-6 0  9993","TLE_LINE2":"2 69394  88.9981   2.4149 0002835 162.7084 197.4207 14.25688991  1343"},{"NORAD_CAT_ID":"69395","OBJECT_NAME":"QIANFAN-178","OBJECT_ID":"2026-124P","EPOCH":"2026-06-13T00:27:53.635392","TLE_LINE1":"1 69395U 26124P   26164.01937078  .00000106  00000-0  37987-4 0  9996","TLE_LINE2":"2 69395  88.9642   2.5838 0002256 195.3700 164.7425 14.26159618  1224"},{"NORAD_CAT_ID":"69396","OBJECT_NAME":"QIANFAN-179","OBJECT_ID":"2026-124Q","EPOCH":"2026-06-13T20:38:29.184864","TLE_LINE1":"1 69396U 26124Q   26164.86006001 -.01971323  00000-0 -94572+0 0  9992","TLE_LINE2":"2 69396  88.9978   2.4153 0004353 107.3109 252.8559 14.22997940  1346"},{"NORAD_CAT_ID":"69397","OBJECT_NAME":"QIANFAN-180","OBJECT_ID":"2026-124R","EPOCH":"2026-06-13T20:39:52.445088","TLE_LINE1":"1 69397U 26124R   26164.86102367  .00000104  00000-0  37314-4 0  9998","TLE_LINE2":"2 69397  88.9984   2.4151 0002315 170.7781 189.3456 14.26489128  1346"},{"NORAD_CAT_ID":"69398","OBJECT_NAME":"QIANFAN-181","OBJECT_ID":"2026-124S","EPOCH":"2026-06-13T20:51:18.817056","TLE_LINE1":"1 69398U 26124S   26164.86896779  .00000097  00000-0  37938-4 0  9999","TLE_LINE2":"2 69398  88.9984   2.4163 0002085 140.3432 219.7911 14.21114977  1346"},{"NORAD_CAT_ID":"69399","OBJECT_NAME":"QIANFAN-182","OBJECT_ID":"2026-124T","EPOCH":"2026-06-13T05:33:40.695264","TLE_LINE1":"1 69399U 26124T   26164.23172101  .00000103  00000-0  37548-4 0  9992","TLE_LINE2":"2 69399  88.9988   2.4869 0002478 179.1552 180.9646 14.25276588  1258"},{"NORAD_CAT_ID":"69400","OBJECT_NAME":"CZ-6A R/B","OBJECT_ID":"2026-124U","EPOCH":"2026-06-13T20:54:09.705024","TLE_LINE1":"1 69400U 26124U   26164.87094566  .00000315  00000-0  60874-4 0  9996","TLE_LINE2":"2 69400  89.0257   2.3536 0100191  73.1023 288.1144 14.57302430  1377"}]}